IRIDIUM 26              
1 24903U 97043A   25354.35696515  .00000318  00000+0  99969-4 0  9997
2 24903  86.3951  32.3609 0002224  98.6659 261.4791 14.37333261483488
IRIDIUM 22              
1 24907U 97043E   25354.58104873  .00000251  00000+0  79338-4 0  9991
2 24907  86.3955  35.9667 0002330  94.5544 265.5919 14.36126461483528
DUMMY MASS 1            
1 24925U 97048A   25354.61084142  .00000300  00000+0  30223-4 0  9991
2 24925  86.3337  49.0639 0006023 184.1214 175.9963 14.87188944532832
DUMMY MASS 2            
1 24926U 97048B   25354.60413367  .00000304  00000+0  30886-4 0  9995
2 24926  86.3338  50.7094 0006270 199.4238 160.6749 14.86939461532602
IRIDIUM 29              
1 24944U 97051A   25354.25761758  .00000293  00000+0  92696-4 0  9994
2 24944  86.3949  65.7871 0002257  91.2298 268.9158 14.36668330479981
IRIDIUM 33              
1 24946U 97051C   25354.23719293  .00000273  00000+0  88822-4 0  9995
2 24946  86.3865  65.0747 0007926 175.1240 185.0035 14.35042342479422
IRIDIUM 28              
1 24948U 97051E   25354.60116248  .00000291  00000+0  90551-4 0  9991
2 24948  86.3953  63.0518 0002196 109.6124 250.5311 14.37568430480625
IRIDIUM 36              
1 24967U 97056C   25354.53545137  .00000302  00000+0  93607-4 0  9990
2 24967  86.3963  94.7070 0002286 100.8835 259.2620 14.37790324478998
